ISS (ZARYA)             
1 25544U 98067A   25357.18166772  .00011641  00000+0  21351-3 0  9997
2 25544  51.6323  90.7678 0003190 289.6661  70.3984 15.49746572544475
CSS (TIANHE)            
1 48274U 21035A   25357.28190550  .00018298  00000+0  22671-3 0  9996
2 48274  41.4686 312.6856 0007971 124.3462 235.8132 15.59596422265671
ISS (NAUKA)             
1 49044U 21066A   25357.18166772  .00011641  00000+0  21351-3 0  9993
2 49044  51.6323  90.7678 0003190 289.6661  70.3984 15.49746572230445
FREGAT DEB              
1 49271U 11037PF  25355.71975141  .00004375  00000+0  99639-2 0  9996
2 49271  51.6526 172.8815 0862706 243.3133 107.6905 12.34516267203044
CSS (WENTIAN)           
1 53239U 22085A   25357.28190550  .00018298  00000+0  22671-3 0  9999
2 53239  41.4686 312.6856 0007971 124.3462 235.8132 15.59596422173845
CSS (MENGTIAN)          
1 54216U 22143A   25357.28190550  .00018298  00000+0  22671-3 0  9990
2 54216  41.4686 312.6856 0007971 124.3462 235.8132 15.59596422158642
SHENZHOU-20 (SZ-20)     
1 63632U 25082A   25357.28190550  .00018298  00000+0  22671-3 0  9997
2 63632  41.4686 312.6856 0007971 124.3462 235.8132 15.59596422255305
PROGRESS-MS 31          
1 64751U 25146A   25357.18166772  .00011641  00000+0  21351-3 0  9998
2 64751  51.6323  90.7678 0003190 289.6661  70.3984 15.49746572  6752
TIANZHOU-9              
1 64786U 25149A   25357.28190550  .00018298  00000+0  22671-3 0  9992
2 64786  41.4686 312.6856 0007971 124.3462 235.8132 15.59596422255306
CREW DRAGON 11          
1 65077U 25166A   25357.18166772  .00011641  00000+0  21351-3 0  9992
2 65077  51.6323  90.7678 0003190 289.6661  70.3984 15.49746572  2143
DRAGON CRS-33           
1 65304U 25186A   25357.18166772  .00011641  00000+0  21351-3 0  9997
2 65304  51.6323  90.7678 0003190 289.6661  70.3984 15.49746572   111
PROGRESS-MS 32          
1 65586U 25204A   25357.18166772  .00011641  00000+0  21351-3 0  9990
2 65586  51.6323  90.7678 0003190 289.6661  70.3984 15.49746572   270
