CCSDS_OMM_VERS = 2.0
CREATION_DATE  = 
ORIGINATOR     = 

OBJECT_NAME    = ISS (ZARYA)
OBJECT_ID      = 1998-067A
CENTER_NAME    = EARTH
REF_FRAME      = TEME
TIME_SYSTEM    = UTC
MEAN_ELEMENT_THEORY = SGP/SGP4

EPOCH          = 2025-12-23T04:21:36.091008
MEAN_MOTION    = 15.49746572
ECCENTRICITY   = .00031904
INCLINATION    = 51.6323
RA_OF_ASC_NODE = 90.7678
ARG_OF_PERICENTER = 289.6661
MEAN_ANOMALY   = 70.3984

EPHEMERIS_TYPE = 0
CLASSIFICATION_TYPE = U
NORAD_CAT_ID   = 25544
ELEMENT_SET_NO = 999
REV_AT_EPOCH   = 54447
BSTAR          = .21350548E-3
MEAN_MOTION_DOT = .11641E-3
MEAN_MOTION_DDOT = 0

CCSDS_OMM_VERS = 2.0
CREATION_DATE  = 
ORIGINATOR     = 

OBJECT_NAME    = CSS (TIANHE)
OBJECT_ID      = 2021-035A
CENTER_NAME    = EARTH
REF_FRAME      = TEME
TIME_SYSTEM    = UTC
MEAN_ELEMENT_THEORY = SGP/SGP4

EPOCH          = 2025-12-23T06:45:56.635200
MEAN_MOTION    = 15.59596422
ECCENTRICITY   = .0007971
INCLINATION    = 41.4686
RA_OF_ASC_NODE = 312.6856
ARG_OF_PERICENTER = 124.3462
MEAN_ANOMALY   = 235.8132

EPHEMERIS_TYPE = 0
CLASSIFICATION_TYPE = U
NORAD_CAT_ID   = 48274
ELEMENT_SET_NO = 999
REV_AT_EPOCH   = 26567
BSTAR          = .22671035E-3
MEAN_MOTION_DOT = .18298E-3
MEAN_MOTION_DDOT = 0

CCSDS_OMM_VERS = 2.0
CREATION_DATE  = 
ORIGINATOR     = 

OBJECT_NAME    = ISS (NAUKA)
OBJECT_ID      = 2021-066A
CENTER_NAME    = EARTH
REF_FRAME      = TEME
TIME_SYSTEM    = UTC
MEAN_ELEMENT_THEORY = SGP/SGP4

EPOCH          = 2025-12-23T04:21:36.091008
MEAN_MOTION    = 15.49746572
ECCENTRICITY   = .00031904
INCLINATION    = 51.6323
RA_OF_ASC_NODE = 90.7678
ARG_OF_PERICENTER = 289.6661
MEAN_ANOMALY   = 70.3984

EPHEMERIS_TYPE = 0
CLASSIFICATION_TYPE = U
NORAD_CAT_ID   = 49044
ELEMENT_SET_NO = 999
REV_AT_EPOCH   = 23044
BSTAR          = .21350548E-3
MEAN_MOTION_DOT = .11641E-3
MEAN_MOTION_DDOT = 0

CCSDS_OMM_VERS = 2.0
CREATION_DATE  = 
ORIGINATOR     = 

OBJECT_NAME    = FREGAT DEB
OBJECT_ID      = 2011-037PF
CENTER_NAME    = EARTH
REF_FRAME      = TEME
TIME_SYSTEM    = UTC
MEAN_ELEMENT_THEORY = SGP/SGP4

EPOCH          = 2025-12-21T17:16:26.521824
MEAN_MOTION    = 12.34516267
ECCENTRICITY   = .08627065
INCLINATION    = 51.6526
RA_OF_ASC_NODE = 172.8815
ARG_OF_PERICENTER = 243.3133
MEAN_ANOMALY   = 107.6905

EPHEMERIS_TYPE = 0
CLASSIFICATION_TYPE = U
NORAD_CAT_ID   = 49271
ELEMENT_SET_NO = 999
REV_AT_EPOCH   = 20304
BSTAR          = .99638707E-2
MEAN_MOTION_DOT = .4375E-4
MEAN_MOTION_DDOT = 0

CCSDS_OMM_VERS = 2.0
CREATION_DATE  = 
ORIGINATOR     = 

OBJECT_NAME    = CSS (WENTIAN)
OBJECT_ID      = 2022-085A
CENTER_NAME    = EARTH
REF_FRAME      = TEME
TIME_SYSTEM    = UTC
MEAN_ELEMENT_THEORY = SGP/SGP4

EPOCH          = 2025-12-23T06:45:56.635200
MEAN_MOTION    = 15.59596422
ECCENTRICITY   = .0007971
INCLINATION    = 41.4686
RA_OF_ASC_NODE = 312.6856
ARG_OF_PERICENTER = 124.3462
MEAN_ANOMALY   = 235.8132

EPHEMERIS_TYPE = 0
CLASSIFICATION_TYPE = U
NORAD_CAT_ID   = 53239
ELEMENT_SET_NO = 999
REV_AT_EPOCH   = 17384
BSTAR          = .22671035E-3
MEAN_MOTION_DOT = .18298E-3
MEAN_MOTION_DDOT = 0

CCSDS_OMM_VERS = 2.0
CREATION_DATE  = 
ORIGINATOR     = 

OBJECT_NAME    = CSS (MENGTIAN)
OBJECT_ID      = 2022-143A
CENTER_NAME    = EARTH
REF_FRAME      = TEME
TIME_SYSTEM    = UTC
MEAN_ELEMENT_THEORY = SGP/SGP4

EPOCH          = 2025-12-23T06:45:56.635200
MEAN_MOTION    = 15.59596422
ECCENTRICITY   = .0007971
INCLINATION    = 41.4686
RA_OF_ASC_NODE = 312.6856
ARG_OF_PERICENTER = 124.3462
MEAN_ANOMALY   = 235.8132

EPHEMERIS_TYPE = 0
CLASSIFICATION_TYPE = U
NORAD_CAT_ID   = 54216
ELEMENT_SET_NO = 999
REV_AT_EPOCH   = 15864
BSTAR          = .22671035E-3
MEAN_MOTION_DOT = .18298E-3
MEAN_MOTION_DDOT = 0

CCSDS_OMM_VERS = 2.0
CREATION_DATE  = 
ORIGINATOR     = 

OBJECT_NAME    = SHENZHOU-20 (SZ-20)
OBJECT_ID      = 2025-082A
CENTER_NAME    = EARTH
REF_FRAME      = TEME
TIME_SYSTEM    = UTC
MEAN_ELEMENT_THEORY = SGP/SGP4

EPOCH          = 2025-12-23T06:45:56.635200
MEAN_MOTION    = 15.59596422
ECCENTRICITY   = .0007971
INCLINATION    = 41.4686
RA_OF_ASC_NODE = 312.6856
ARG_OF_PERICENTER = 124.3462
MEAN_ANOMALY   = 235.8132

EPHEMERIS_TYPE = 0
CLASSIFICATION_TYPE = U
NORAD_CAT_ID   = 63632
ELEMENT_SET_NO = 999
REV_AT_EPOCH   = 25530
BSTAR          = .22671035E-3
MEAN_MOTION_DOT = .18298E-3
MEAN_MOTION_DDOT = 0

CCSDS_OMM_VERS = 2.0
CREATION_DATE  = 
ORIGINATOR     = 

OBJECT_NAME    = PROGRESS-MS 31
OBJECT_ID      = 2025-146A
CENTER_NAME    = EARTH
REF_FRAME      = TEME
TIME_SYSTEM    = UTC
MEAN_ELEMENT_THEORY = SGP/SGP4

EPOCH          = 2025-12-23T04:21:36.091008
MEAN_MOTION    = 15.49746572
ECCENTRICITY   = .00031904
INCLINATION    = 51.6323
RA_OF_ASC_NODE = 90.7678
ARG_OF_PERICENTER = 289.6661
MEAN_ANOMALY   = 70.3984

EPHEMERIS_TYPE = 0
CLASSIFICATION_TYPE = U
NORAD_CAT_ID   = 64751
ELEMENT_SET_NO = 999
REV_AT_EPOCH   = 675
BSTAR          = .21350548E-3
MEAN_MOTION_DOT = .11641E-3
MEAN_MOTION_DDOT = 0

CCSDS_OMM_VERS = 2.0
CREATION_DATE  = 
ORIGINATOR     = 

OBJECT_NAME    = TIANZHOU-9
OBJECT_ID      = 2025-149A
CENTER_NAME    = EARTH
REF_FRAME      = TEME
TIME_SYSTEM    = UTC
MEAN_ELEMENT_THEORY = SGP/SGP4

EPOCH          = 2025-12-23T06:45:56.635200
MEAN_MOTION    = 15.59596422
ECCENTRICITY   = .0007971
INCLINATION    = 41.4686
RA_OF_ASC_NODE = 312.6856
ARG_OF_PERICENTER = 124.3462
MEAN_ANOMALY   = 235.8132

EPHEMERIS_TYPE = 0
CLASSIFICATION_TYPE = U
NORAD_CAT_ID   = 64786
ELEMENT_SET_NO = 999
REV_AT_EPOCH   = 25530
BSTAR          = .22671035E-3
MEAN_MOTION_DOT = .18298E-3
MEAN_MOTION_DDOT = 0

CCSDS_OMM_VERS = 2.0
CREATION_DATE  = 
ORIGINATOR     = 

OBJECT_NAME    = CREW DRAGON 11
OBJECT_ID      = 2025-166A
CENTER_NAME    = EARTH
REF_FRAME      = TEME
TIME_SYSTEM    = UTC
MEAN_ELEMENT_THEORY = SGP/SGP4

EPOCH          = 2025-12-23T04:21:36.091008
MEAN_MOTION    = 15.49746572
ECCENTRICITY   = .00031904
INCLINATION    = 51.6323
RA_OF_ASC_NODE = 90.7678
ARG_OF_PERICENTER = 289.6661
MEAN_ANOMALY   = 70.3984

EPHEMERIS_TYPE = 0
CLASSIFICATION_TYPE = U
NORAD_CAT_ID   = 65077
ELEMENT_SET_NO = 999
REV_AT_EPOCH   = 214
BSTAR          = .21350548E-3
MEAN_MOTION_DOT = .11641E-3
MEAN_MOTION_DDOT = 0

CCSDS_OMM_VERS = 2.0
CREATION_DATE  = 
ORIGINATOR     = 

OBJECT_NAME    = DRAGON CRS-33
OBJECT_ID      = 2025-186A
CENTER_NAME    = EARTH
REF_FRAME      = TEME
TIME_SYSTEM    = UTC
MEAN_ELEMENT_THEORY = SGP/SGP4

EPOCH          = 2025-12-23T04:21:36.091008
MEAN_MOTION    = 15.49746572
ECCENTRICITY   = .00031904
INCLINATION    = 51.6323
RA_OF_ASC_NODE = 90.7678
ARG_OF_PERICENTER = 289.6661
MEAN_ANOMALY   = 70.3984

EPHEMERIS_TYPE = 0
CLASSIFICATION_TYPE = U
NORAD_CAT_ID   = 65304
ELEMENT_SET_NO = 999
REV_AT_EPOCH   = 11
BSTAR          = .21350548E-3
MEAN_MOTION_DOT = .11641E-3
MEAN_MOTION_DDOT = 0

CCSDS_OMM_VERS = 2.0
CREATION_DATE  = 
ORIGINATOR     = 

OBJECT_NAME    = PROGRESS-MS 32
OBJECT_ID      = 2025-204A
CENTER_NAME    = EARTH
REF_FRAME      = TEME
TIME_SYSTEM    = UTC
MEAN_ELEMENT_THEORY = SGP/SGP4

EPOCH          = 2025-12-23T04:21:36.091008
MEAN_MOTION    = 15.49746572
ECCENTRICITY   = .00031904
INCLINATION    = 51.6323
RA_OF_ASC_NODE = 90.7678
ARG_OF_PERICENTER = 289.6661
MEAN_ANOMALY   = 70.3984

EPHEMERIS_TYPE = 0
CLASSIFICATION_TYPE = U
NORAD_CAT_ID   = 65586
ELEMENT_SET_NO = 999
REV_AT_EPOCH   = 27
BSTAR          = .21350548E-3
MEAN_MOTION_DOT = .11641E-3
MEAN_MOTION_DDOT = 0

